[
    {
        "Altitude(m)": 554142.8455876844,
        "Argument of Periapsis(deg)": 0.019868973332140504,
        "Eccentricity": 0.0,
        "Inclination(deg)": 53.0,
        "Latitude(deg)": 23.3733433468647,
        "Longitude(deg)": -141.27884908147482,
        "Mean Anomaly(deg)": 150.27487860273277,
        "RAAN(deg)": 159.97043010558406,
        "Satellite Name": "Starlink Shell 1 711",
        "Satellite Number": 711,
        "Semi-Major Axis(m)": 6931778.249405717,
        "Time(s)": 570
    },
    {
        "Altitude(m)": 554090.9289911475,
        "Argument of Periapsis(deg)": 0.02021755181165174,
        "Eccentricity": 0.0,
        "Inclination(deg)": 53.0,
        "Latitude(deg)": 22.896473925300068,
        "Longitude(deg)": -140.87503758530556,
        "Mean Anomaly(deg)": 150.90170980628946,
        "RAAN(deg)": 159.96991133550657,
        "Satellite Name": "Starlink Shell 1 711",
        "Satellite Number": 711,
        "Semi-Major Axis(m)": 6931778.249405717,
        "Time(s)": 580
    },
    {
        "Altitude(m)": 554040.8358764745,
        "Argument of Periapsis(deg)": 0.020566130291162974,
        "Eccentricity": 0.0,
        "Inclination(deg)": 53.0,
        "Latitude(deg)": 22.418339670071997,
        "Longitude(deg)": -140.47432895354336,
        "Mean Anomaly(deg)": 151.52854100984624,
        "RAAN(deg)": 159.9693925654291,
        "Satellite Name": "Starlink Shell 1 711",
        "Satellite Number": 711,
        "Semi-Major Axis(m)": 6931778.249405717,
        "Time(s)": 590
    },
    {
        "Altitude(m)": 553992.6111954807,
        "Argument of Periapsis(deg)": 0.020914708770674213,
        "Eccentricity": 0.0,
        "Inclination(deg)": 53.0,
        "Latitude(deg)": 21.93897798742689,
        "Longitude(deg)": -140.07663831313528,
        "Mean Anomaly(deg)": 152.15537221340296,
        "RAAN(deg)": 159.96887379535164,
        "Satellite Name": "Starlink Shell 1 711",
        "Satellite Number": 711,
        "Semi-Major Axis(m)": 6931778.249405717,
        "Time(s)": 600
    },
    {
        "Altitude(m)": 553946.2991265234,
        "Argument of Periapsis(deg)": 0.021263287250185448,
        "Eccentricity": 0.0,
        "Inclination(deg)": 53.0,
        "Latitude(deg)": 21.458425569682888,
        "Longitude(deg)": -139.68188196285837,
        "Mean Anomaly(deg)": 152.78220341695965,
        "RAAN(deg)": 159.96835502527415,
        "Satellite Name": "Starlink Shell 1 711",
        "Satellite Number": 711,
        "Semi-Major Axis(m)": 6931778.249405717,
        "Time(s)": 610
    },
    {
        "Altitude(m)": 553901.9430502594,
        "Argument of Periapsis(deg)": 0.021611865729696686,
        "Eccentricity": 0.0,
        "Inclination(deg)": 53.0,
        "Latitude(deg)": 20.97671841876629,
        "Longitude(deg)": -139.28997684731456,
        "Mean Anomaly(deg)": 153.4090346205163,
        "RAAN(deg)": 159.9678362551967,
        "Satellite Name": "Starlink Shell 1 711",
        "Satellite Number": 711,
        "Semi-Major Axis(m)": 6931778.249405717,
        "Time(s)": 620
    },
    {
        "Altitude(m)": 553859.5855257453,
        "Argument of Periapsis(deg)": 0.02196044420920792,
        "Eccentricity": 0.0,
        "Inclination(deg)": 53.0,
        "Latitude(deg)": 20.49389186923863,
        "Longitude(deg)": -138.90084171108398,
        "Mean Anomaly(deg)": 154.03586582407303,
        "RAAN(deg)": 159.9673174851192,
        "Satellite Name": "Starlink Shell 1 711",
        "Satellite Number": 711,
        "Semi-Major Axis(m)": 6931778.249405717,
        "Time(s)": 630
    },
    {
        "Altitude(m)": 553819.2682669405,
        "Argument of Periapsis(deg)": 0.02230902268871916,
        "Eccentricity": 0.0,
        "Inclination(deg)": 53.0,
        "Latitude(deg)": 20.00998061081581,
        "Longitude(deg)": -138.51439573070516,
        "Mean Anomaly(deg)": 154.66269702762978,
        "RAAN(deg)": 159.96679871504173,
        "Satellite Name": "Starlink Shell 1 711",
        "Satellite Number": 711,
        "Semi-Major Axis(m)": 6931778.249405717,
        "Time(s)": 640
    },
    {
        "Altitude(m)": 553781.0321195882,
        "Argument of Periapsis(deg)": 0.022657601168230398,
        "Eccentricity": 0.0,
        "Inclination(deg)": 53.0,
        "Latitude(deg)": 19.52501871039394,
        "Longitude(deg)": -138.1305596674759,
        "Mean Anomaly(deg)": 155.28952823118647,
        "RAAN(deg)": 159.96627994496427,
        "Satellite Name": "Starlink Shell 1 711",
        "Satellite Number": 711,
        "Semi-Major Axis(m)": 6931778.249405717,
        "Time(s)": 650
    },
    {
        "Altitude(m)": 553744.9170385005,
        "Argument of Periapsis(deg)": 0.023006179647741636,
        "Eccentricity": 0.0,
        "Inclination(deg)": 53.0,
        "Latitude(deg)": 19.03903963358438,
        "Longitude(deg)": -137.7492553387276,
        "Mean Anomaly(deg)": 155.9163594347432,
        "RAAN(deg)": 159.9657611748868,
        "Satellite Name": "Starlink Shell 1 711",
        "Satellite Number": 711,
        "Semi-Major Axis(m)": 6931778.249405717,
        "Time(s)": 660
    },
    {
        "Altitude(m)": 553710.9620652483,
        "Argument of Periapsis(deg)": 0.023354758127252868,
        "Eccentricity": 0.0,
        "Inclination(deg)": 53.0,
        "Latitude(deg)": 18.552076265772133,
        "Longitude(deg)": -137.37040508861708,
        "Mean Anomaly(deg)": 156.54319063829988,
        "RAAN(deg)": 159.96524240480932,
        "Satellite Name": "Starlink Shell 1 711",
        "Satellite Number": 711,
        "Semi-Major Axis(m)": 6931778.249405717,
        "Time(s)": 670
    },
    {
        "Altitude(m)": 553679.2053063113,
        "Argument of Periapsis(deg)": 0.023703336606764106,
        "Eccentricity": 0.0,
        "Inclination(deg)": 53.0,
        "Latitude(deg)": 18.064160932706116,
        "Longitude(deg)": -136.9939327713703,
        "Mean Anomaly(deg)": 157.17002184185665,
        "RAAN(deg)": 159.96472363473185,
        "Satellite Name": "Starlink Shell 1 711",
        "Satellite Number": 711,
        "Semi-Major Axis(m)": 6931778.249405717,
        "Time(s)": 680
    },
    {
        "Altitude(m)": 553649.683911605,
        "Argument of Periapsis(deg)": 0.024051915086275345,
        "Eccentricity": 0.0,
        "Inclination(deg)": 53.0,
        "Latitude(deg)": 17.575325420631135,
        "Longitude(deg)": -136.6197632212969,
        "Mean Anomaly(deg)": 157.79685304541337,
        "RAAN(deg)": 159.96420486465436,
        "Satellite Name": "Starlink Shell 1 711",
        "Satellite Number": 711,
        "Semi-Major Axis(m)": 6931778.249405717,
        "Time(s)": 690
    },
    {
        "Altitude(m)": 553622.4340535473,
        "Argument of Periapsis(deg)": 0.024400493565786583,
        "Eccentricity": 0.0,
        "Inclination(deg)": 53.0,
        "Latitude(deg)": 17.085600995972154,
        "Longitude(deg)": -136.24782172249888,
        "Mean Anomaly(deg)": 158.42368424897006,
        "RAAN(deg)": 159.9636860945769,
        "Satellite Name": "Starlink Shell 1 711",
        "Satellite Number": 711,
        "Semi-Major Axis(m)": 6931778.249405717,
        "Time(s)": 700
    },
    {
        "Altitude(m)": 553597.4909064934,
        "Argument of Periapsis(deg)": 0.024749072045297815,
        "Eccentricity": 0.0,
        "Inclination(deg)": 53.0,
        "Latitude(deg)": 16.595018424585124,
        "Longitude(deg)": -135.87803499119886,
        "Mean Anomaly(deg)": 159.05051545252678,
        "RAAN(deg)": 159.96316732449944,
        "Satellite Name": "Starlink Shell 1 711",
        "Satellite Number": 711,
        "Semi-Major Axis(m)": 6931778.249405717,
        "Time(s)": 710
    },
    {
        "Altitude(m)": 553574.8886267203,
        "Argument of Periapsis(deg)": 0.025097650524809053,
        "Eccentricity": 0.0,
        "Inclination(deg)": 53.0,
        "Latitude(deg)": 16.103607990582383,
        "Longitude(deg)": -135.51033064498603,
        "Mean Anomaly(deg)": 159.67734665608344,
        "RAAN(deg)": 159.96264855442197,
        "Satellite Name": "Starlink Shell 1 711",
        "Satellite Number": 711,
        "Semi-Major Axis(m)": 6931778.249405717,
        "Time(s)": 720
    },
    {
        "Altitude(m)": 553554.6603328421,
        "Argument of Periapsis(deg)": 0.02544622900432029,
        "Eccentricity": 0.0,
        "Inclination(deg)": 53.0,
        "Latitude(deg)": 15.611399514744962,
        "Longitude(deg)": -135.1446366718937,
        "Mean Anomaly(deg)": 160.3041778596402,
        "RAAN(deg)": 159.96212978434448,
        "Satellite Name": "Starlink Shell 1 711",
        "Satellite Number": 711,
        "Semi-Major Axis(m)": 6931778.249405717,
        "Time(s)": 730
    },
    {
        "Altitude(m)": 553536.8380867667,
        "Argument of Periapsis(deg)": 0.02579480748383153,
        "Eccentricity": 0.0,
        "Inclination(deg)": 53.0,
        "Latitude(deg)": 15.118422372538006,
        "Longitude(deg)": -134.78088241221874,
        "Mean Anomaly(deg)": 160.93100906319694,
        "RAAN(deg)": 159.96161101426702,
        "Satellite Name": "Starlink Shell 1 711",
        "Satellite Number": 711,
        "Semi-Major Axis(m)": 6931778.249405717,
        "Time(s)": 740
    },
    {
        "Altitude(m)": 553521.4528751187,
        "Argument of Periapsis(deg)": 0.026143385963342765,
        "Eccentricity": 0.0,
        "Inclination(deg)": 53.0,
        "Latitude(deg)": 14.624705511735188,
        "Longitude(deg)": -134.41899802736916,
        "Mean Anomaly(deg)": 161.55784026675363,
        "RAAN(deg)": 159.96109224418953,
        "Satellite Name": "Starlink Shell 1 711",
        "Satellite Number": 711,
        "Semi-Major Axis(m)": 6931778.249405717,
        "Time(s)": 750
    }
]